CZ-2C R/B               
1 54039U 22132E   25350.98255329  .00027615  00000+0  40696-3 0  9997
2 54039  97.2939 347.2630 0022469  42.9724 317.3280 15.55076638177496
GSLV R/B                
1 54149U 22138AN  25350.60125749  .00001913  00000+0  16649-3 0  9990
2 54149  87.3826 194.1810 0024201  92.9971 267.4030 14.96152518171507
XRISM                   
1 57800U 23137A   25350.53509263  .00003626  00000+0  20981-3 0  9993
2 57800  31.0019 101.0378 0007726 283.4400  76.5377 15.10374025125202
ACS3                    
1 59588U 24077B   25350.87001447  .00018094  00000+0  15447-1 0  9994
2 59588  97.2643 305.5533 0076752 328.3537  31.3022 13.85686951 82711
SZ-21 MODULE            
1 66515U 25246C   25350.37402047  .00021423  00000+0  23521-3 0  9991
2 66515  41.4775 353.8744 0006090 279.5924  80.4228 15.62674024  5017
