CCSDS_OMM_VERS = 2.0
CREATION_DATE  = 
ORIGINATOR     = 

OBJECT_NAME    = CZ-2C R/B
OBJECT_ID      = 2022-132E
CENTER_NAME    = EARTH
REF_FRAME      = TEME
TIME_SYSTEM    = UTC
MEAN_ELEMENT_THEORY = SGP/SGP4

EPOCH          = 2025-12-16T23:34:52.604256
MEAN_MOTION    = 15.55076638
ECCENTRICITY   = .00224691
INCLINATION    = 97.2939
RA_OF_ASC_NODE = 347.2630
ARG_OF_PERICENTER = 42.9724
MEAN_ANOMALY   = 317.3280

EPHEMERIS_TYPE = 0
CLASSIFICATION_TYPE = U
NORAD_CAT_ID   = 54039
ELEMENT_SET_NO = 999
REV_AT_EPOCH   = 17749
BSTAR          = .40695556E-3
MEAN_MOTION_DOT = .27615E-3
MEAN_MOTION_DDOT = 0

CCSDS_OMM_VERS = 2.0
CREATION_DATE  = 
ORIGINATOR     = 

OBJECT_NAME    = GSLV R/B
OBJECT_ID      = 2022-138AN
CENTER_NAME    = EARTH
REF_FRAME      = TEME
TIME_SYSTEM    = UTC
MEAN_ELEMENT_THEORY = SGP/SGP4

EPOCH          = 2025-12-16T14:25:48.647136
MEAN_MOTION    = 14.96152518
ECCENTRICITY   = .00242017
INCLINATION    = 87.3826
RA_OF_ASC_NODE = 194.1810
ARG_OF_PERICENTER = 92.9971
MEAN_ANOMALY   = 267.4030

EPHEMERIS_TYPE = 0
CLASSIFICATION_TYPE = U
NORAD_CAT_ID   = 54149
ELEMENT_SET_NO = 999
REV_AT_EPOCH   = 17150
BSTAR          = .16648744E-3
MEAN_MOTION_DOT = .1913E-4
MEAN_MOTION_DDOT = 0

CCSDS_OMM_VERS = 2.0
CREATION_DATE  = 
ORIGINATOR     = 

OBJECT_NAME    = XRISM
OBJECT_ID      = 2023-137A
CENTER_NAME    = EARTH
REF_FRAME      = TEME
TIME_SYSTEM    = UTC
MEAN_ELEMENT_THEORY = SGP/SGP4

EPOCH          = 2025-12-16T12:50:32.003232
MEAN_MOTION    = 15.10374025
ECCENTRICITY   = .00077269
INCLINATION    = 31.0019
RA_OF_ASC_NODE = 101.0378
ARG_OF_PERICENTER = 283.4400
MEAN_ANOMALY   = 76.5377

EPHEMERIS_TYPE = 0
CLASSIFICATION_TYPE = U
NORAD_CAT_ID   = 57800
ELEMENT_SET_NO = 999
REV_AT_EPOCH   = 12520
BSTAR          = .2098083E-3
MEAN_MOTION_DOT = .3626E-4
MEAN_MOTION_DDOT = 0

CCSDS_OMM_VERS = 2.0
CREATION_DATE  = 
ORIGINATOR     = 

OBJECT_NAME    = ACS3
OBJECT_ID      = 2024-077B
CENTER_NAME    = EARTH
REF_FRAME      = TEME
TIME_SYSTEM    = UTC
MEAN_ELEMENT_THEORY = SGP/SGP4

EPOCH          = 2025-12-16T20:52:49.250208
MEAN_MOTION    = 13.85686951
ECCENTRICITY   = .00767528
INCLINATION    = 97.2643
RA_OF_ASC_NODE = 305.5533
ARG_OF_PERICENTER = 328.3537
MEAN_ANOMALY   = 31.3022

EPHEMERIS_TYPE = 0
CLASSIFICATION_TYPE = U
NORAD_CAT_ID   = 59588
ELEMENT_SET_NO = 999
REV_AT_EPOCH   = 8271
BSTAR          = .15447429E-1
MEAN_MOTION_DOT = .18094E-3
MEAN_MOTION_DDOT = 0

CCSDS_OMM_VERS = 2.0
CREATION_DATE  = 
ORIGINATOR     = 

OBJECT_NAME    = SZ-21 MODULE
OBJECT_ID      = 2025-246C
CENTER_NAME    = EARTH
REF_FRAME      = TEME
TIME_SYSTEM    = UTC
MEAN_ELEMENT_THEORY = SGP/SGP4

EPOCH          = 2025-12-16T08:58:35.368608
MEAN_MOTION    = 15.62674024
ECCENTRICITY   = .00060905
INCLINATION    = 41.4775
RA_OF_ASC_NODE = 353.8744
ARG_OF_PERICENTER = 279.5924
MEAN_ANOMALY   = 80.4228

EPHEMERIS_TYPE = 0
CLASSIFICATION_TYPE = U
NORAD_CAT_ID   = 66515
ELEMENT_SET_NO = 999
REV_AT_EPOCH   = 501
BSTAR          = .23521282E-3
MEAN_MOTION_DOT = .21423E-3
MEAN_MOTION_DDOT = 0

